ONEWEB-0249             
1 48967U 21060A   25093.63767891 -.00000049  00000+0 -16062-3 0  9991
2 48967  87.9057 316.4032 0001622  84.1742 275.9574 13.16594979183069
ONEWEB-0250             
1 48968U 21060B   25093.54952940  .00002772  00000+0  63026-2 0  9997
2 48968  87.9055 315.6156 0001673  48.7519 311.3761 13.25700180183257
ONEWEB-0252             
1 48970U 21060D   25093.59335243  .00000045  00000+0  83645-4 0  9998
2 48970  87.9053 316.4051 0002085  85.9757 274.1612 13.16593541181818
ONEWEB-0253             
1 48971U 21060E   25093.58226798 -.00000098  00000+0 -28950-3 0  9999
2 48971  87.9052 316.4135 0001793  75.4651 284.6679 13.16594100181746
ONEWEB-0254             
1 48972U 21060F   25093.59177109 -.00000001  00000+0 -36334-4 0  9992
2 48972  87.9055 316.3942 0001543  68.5286 291.6010 13.16594615181743
ONEWEB-0255             
1 48973U 21060G   25093.62976522 -.00000082  00000+0 -24706-3 0  9991
2 48973  87.9057 316.4203 0001640  72.9442 287.1869 13.16593640183110
ONEWEB-0256             
1 48974U 21060H   25093.65588476 -.00000130  00000+0 -37346-3 0  9990
2 48974  87.9058 316.4274 0001853  85.4618 274.6724 13.16595339183084
ONEWEB-0257             
1 48975U 21060J   25093.53635644 -.00000042  00000+0 -14324-3 0  9991
2 48975  87.9056 316.4139 0001813  76.5991 283.5342 13.16594111181736
